[{"OBJECT_NAME":"GMS-T","OBJECT_ID":"2021-004A","EPOCH":"2026-03-09T21:58:54.862464","MEAN_MOTION":13.16656588,"ECCENTRICITY":0.00016531,"INCLINATION":90.1169,"RA_OF_ASC_NODE":240.6396,"ARG_OF_PERICENTER":357.5234,"MEAN_ANOMALY":2.5889,"EPHEMERIS_TYPE":0,"CLASSIFICATION_TYPE":"U","NORAD_CAT_ID":47346,"ELEMENT_SET_NO":999,"REV_AT_EPOCH":24653,"BSTAR":0.00013651536,"MEAN_MOTION_DOT":6.0e-7,"MEAN_MOTION_DDOT":0},{"OBJECT_NAME":"ONEWEB-0287","OBJECT_ID":"2021-075C","EPOCH":"2026-03-09T22:02:02.385888","MEAN_MOTION":13.17647802,"ECCENTRICITY":0.00018032,"INCLINATION":87.915,"RA_OF_ASC_NODE":25.5785,"ARG_OF_PERICENTER":66.5637,"MEAN_ANOMALY":293.5684,"EPHEMERIS_TYPE":0,"CLASSIFICATION_TYPE":"U","NORAD_CAT_ID":49077,"ELEMENT_SET_NO":999,"REV_AT_EPOCH":22055,"BSTAR":-1.298876e-5,"MEAN_MOTION_DOT":8.0e-8,"MEAN_MOTION_DDOT":0}]
